{
  "type": "FeatureCollection",
  "features": [
    {
      "type": "Feature",
      "properties": {
        "norad_id": 65731,
        "name": "1998-067XK",
        "group": "stations",
        "lat": -31.879022408457615,
        "lon": 92.87088607893827,
        "alt_km": 371.1016509583451,
        "timestamp": "2025-12-15T15:53:18.684005+00:00",
        "meta_object_name": "1998-067XK",
        "meta_object_id": "1998-067XK",
        "meta_epoch": "2025-12-14T09:26:35.318976",
        "meta_mean_motion": 15.6612417,
        "meta_eccentricity": 0.00048995,
        "meta_inclination": 51.6278,
        "meta_ra_of_asc_node": 128.8403,
        "meta_arg_of_pericenter": 257.8165,
        "meta_mean_anomaly": 102.2282,
        "meta_ephemeris_type": 0,
        "meta_classification_type": "U",
        "meta_norad_cat_id": 65731,
        "meta_element_set_no": 999,
        "meta_rev_at_epoch": 1340,
        "meta_bstar": 0.0010467097,
        "meta_mean_motion_dot": 0.00110677,
        "meta_mean_motion_ddot": 0,
        "tle_line1": "1 65731U 98067XK  25348.39346434  .00110677  00000+0  10467-2 0  9991",
        "tle_line2": "2 65731  51.6278 128.8403 0004899 257.8165 102.2282 15.66124170 13401"
      },
      "geometry": {
        "type": "Point",
        "coordinates": [
          92.87088607893827,
          -31.879022408457615
        ]
      }
    },
    {
      "type": "Feature",
      "properties": {
        "norad_id": 65732,
        "name": "RSP-03",
        "group": "stations",
        "lat": -29.344977483992643,
        "lon": 95.17143122232936,
        "alt_km": 361.88562775258833,
        "timestamp": "2025-12-15T15:53:18.684014+00:00",
        "meta_object_name": "RSP-03",
        "meta_object_id": "1998-067XL",
        "meta_epoch": "2025-12-14T18:39:23.399424",
        "meta_mean_motion": 15.69202876,
        "meta_eccentricity": 0.00056754,
        "meta_inclination": 51.6257,
        "meta_ra_of_asc_node": 126.1422,
        "meta_arg_of_pericenter": 265.6852,
        "meta_mean_anomaly": 94.3496,
        "meta_ephemeris_type": 0,
        "meta_classification_type": "U",
        "meta_norad_cat_id": 65732,
        "meta_element_set_no": 999,
        "meta_rev_at_epoch": 1348,
        "meta_bstar": 0.0009740183,
        "meta_mean_motion_dot": 0.00116871,
        "meta_mean_motion_ddot": 0,
        "tle_line1": "1 65732U 98067XL  25348.77735416  .00116871  00000+0  97402-3 0  9993",
        "tle_line2": "2 65732  51.6257 126.1422 0005675 265.6852  94.3496 15.69202876 13483"
      },
      "geometry": {
        "type": "Point",
        "coordinates": [
          95.17143122232936,
          -29.344977483992643
        ]
      }
    },
    {
      "type": "Feature",
      "properties": {
        "norad_id": 65733,
        "name": "GHS-01",
        "group": "stations",
        "lat": -38.459187523153865,
        "lon": 81.14645039967705,
        "alt_km": 340.486839906137,
        "timestamp": "2025-12-15T15:53:18.684025+00:00",
        "meta_object_name": "GHS-01",
        "meta_object_id": "1998-067XM",
        "meta_epoch": "2025-12-13T15:24:20.714688",
        "meta_mean_motion": 15.75321114,
        "meta_eccentricity": 0.00073966,
        "meta_inclination": 51.6271,
        "meta_ra_of_asc_node": 130.5592,
        "meta_arg_of_pericenter": 286.1274,
        "meta_mean_anomaly": 73.8911,
        "meta_ephemeris_type": 0,
        "meta_classification_type": "U",
        "meta_norad_cat_id": 65733,
        "meta_element_set_no": 999,
        "meta_rev_at_epoch": 1332,
        "meta_bstar": 0.0014639187,
        "meta_mean_motion_dot": 0.0023151,
        "meta_mean_motion_ddot": 0,
        "tle_line1": "1 65733U 98067XM  25347.64190642  .00231510  00000+0  14639-2 0  9993",
        "tle_line2": "2 65733  51.6271 130.5592 0007396 286.1274  73.8911 15.75321114 13326"
      },
      "geometry": {
        "type": "Point",
        "coordinates": [
          81.14645039967705,
          -38.459187523153865
        ]
      }
    },
    {
      "type": "Feature",
      "properties": {
        "norad_id": 65941,
        "name": "YOTSUBA-KULOVER",
        "group": "stations",
        "lat": 8.902891786580192,
        "lon": 132.41259960299706,
        "alt_km": 387.4816341015703,
        "timestamp": "2025-12-15T15:53:18.684034+00:00",
        "meta_object_name": "YOTSUBA-KULOVER",
        "meta_object_id": "1998-067XN",
        "meta_epoch": "2025-12-14T10:37:31.352736",
        "meta_mean_motion": 15.59735422,
        "meta_eccentricity": 0.00013863,
        "meta_inclination": 51.6284,
        "meta_ra_of_asc_node": 131.4172,
        "meta_arg_of_pericenter": 271.9783,
        "meta_mean_anomaly": 88.1051,
        "meta_ephemeris_type": 0,
        "meta_classification_type": "U",
        "meta_norad_cat_id": 65941,
        "meta_element_set_no": 999,
        "meta_rev_at_epoch": 1012,
        "meta_bstar": 0.00091507112,
        "meta_mean_motion_dot": 0.00074853,
        "meta_mean_motion_ddot": 0,
        "tle_line1": "1 65941U 98067XN  25348.44272399  .00074853  00000+0  91507-3 0  9998",
        "tle_line2": "2 65941  51.6284 131.4172 0001386 271.9783  88.1051 15.59735422 10127"
      },
      "geometry": {
        "type": "Point",
        "coordinates": [
          132.41259960299706,
          8.902891786580192
        ]
      }
    },
    {
      "type": "Feature",
      "properties": {
        "norad_id": 65942,
        "name": "BOTAN",
        "group": "stations",
        "lat": 13.569245808031365,
        "lon": 135.54336219439185,
        "alt_km": 377.20301743021173,
        "timestamp": "2025-12-15T15:53:18.684043+00:00",
        "meta_object_name": "BOTAN",
        "meta_object_id": "1998-067XP",
        "meta_epoch": "2025-12-13T19:19:30.936288",
        "meta_mean_motion": 15.63168137,
        "meta_eccentricity": 0.00029855,
        "meta_inclination": 51.6273,
        "meta_ra_of_asc_node": 133.9097,
        "meta_arg_of_pericenter": 245.5023,
        "meta_mean_anomaly": 114.566,
        "meta_ephemeris_type": 0,
        "meta_classification_type": "U",
        "meta_norad_cat_id": 65942,
        "meta_element_set_no": 999,
        "meta_rev_at_epoch": 1003,
        "meta_bstar": 0.0012359991,
        "meta_mean_motion_dot": 0.00116317,
        "meta_mean_motion_ddot": 0,
        "tle_line1": "1 65942U 98067XP  25347.80521917  .00116317  00000+0  12360-2 0  9992",
        "tle_line2": "2 65942  51.6273 133.9097 0002985 245.5023 114.5660 15.63168137 10037"
      },
      "geometry": {
        "type": "Point",
        "coordinates": [
          135.54336219439185,
          13.569245808031365
        ]
      }
    },
    {
      "type": "Feature",
      "properties": {
        "norad_id": 65943,
        "name": "E-KAGAKU-1",
        "group": "stations",
        "lat": 8.460047590715766,
        "lon": 132.05620754353228,
        "alt_km": 388.71879867834105,
        "timestamp": "2025-12-15T15:53:18.684053+00:00",
        "meta_object_name": "E-KAGAKU-1",
        "meta_object_id": "1998-067XQ",
        "meta_epoch": "2025-12-14T15:14:24.603072",
        "meta_mean_motion": 15.59736251,
        "meta_eccentricity": 0.00018352,
        "meta_inclination": 51.6284,
        "meta_ra_of_asc_node": 130.4549,
        "meta_arg_of_pericenter": 215.0597,
        "meta_mean_anomaly": 145.0275,
        "meta_ephemeris_type": 0,
        "meta_classification_type": "U",
        "meta_norad_cat_id": 65943,
        "meta_element_set_no": 999,
        "meta_rev_at_epoch": 1015,
        "meta_bstar": 0.00073893681,
        "meta_mean_motion_dot": 0.00060238,
        "meta_mean_motion_ddot": 0,
        "tle_line1": "1 65943U 98067XQ  25348.63500698  .00060238  00000+0  73894-3 0  9998",
        "tle_line2": "2 65943  51.6284 130.4549 0001835 215.0597 145.0275 15.59736251 10152"
      },
      "geometry": {
        "type": "Point",
        "coordinates": [
          132.05620754353228,
          8.460047590715766
        ]
      }
    },
    {
      "type": "Feature",
      "properties": {
        "norad_id": 66052,
        "name": "HRC MONOBLOCK CAMERA",
        "group": "stations",
        "lat": -43.8435036631589,
        "lon": 77.38074407108624,
        "alt_km": 408.80019543665003,
        "timestamp": "2025-12-15T15:53:18.684063+00:00",
        "meta_object_name": "HRC MONOBLOCK CAMERA",
        "meta_object_id": "1998-067XR",
        "meta_epoch": "2025-12-14T23:10:53.339232",
        "meta_mean_motion": 15.54310569,
        "meta_eccentricity": 0.00030025,
        "meta_inclination": 51.6288,
        "meta_ra_of_asc_node": 130.4053,
        "meta_arg_of_pericenter": 194.2306,
        "meta_mean_anomaly": 165.8601,
        "meta_ephemeris_type": 0,
        "meta_classification_type": "U",
        "meta_norad_cat_id": 66052,
        "meta_element_set_no": 999,
        "meta_rev_at_epoch": 918,
        "meta_bstar": 0.00041495523,
        "meta_mean_motion_dot": 0.00027269,
        "meta_mean_motion_ddot": 0,
        "tle_line1": "1 66052U 98067XR  25348.96589513  .00027269  00000+0  41496-3 0  9999",
        "tle_line2": "2 66052  51.6288 130.4053 0003002 194.2306 165.8601 15.54310569  9181"
      },
      "geometry": {
        "type": "Point",
        "coordinates": [
          77.38074407108624,
          -43.8435036631589
        ]
      }
    }
  ]
}